STARLINK-33941          
1 63765U 25089Q   26188.13681250  .00018667  00000+0  68590-3 0  9990
2 63765  43.0016  90.8170 0001530 265.2675  94.8002 15.27592150 67216
STARLINK-33824          
1 63766U 25089R   26188.08813047  .00029498  00000+0  10760-2 0  9995
2 63766  42.9965  91.3129 0001029 268.4337  91.6396 15.27616562 67216
STARLINK-33808          
1 63767U 25089S   26188.19063257  .00024716  00000+0  90381-3 0  9994
2 63767  43.0032  90.3595 0001540 266.2591  93.8084 15.27611395 67235
STARLINK-33844          
1 63768U 25089T   26188.10597193  .00028212  00000+0  10297-2 0  9999
2 63768  43.0011  90.5852 0001381 255.3367 104.7332 15.27616278 67226
STARLINK-33907          
1 63769U 25089U   26188.06499044  .00038526  00000+0  13996-2 0  9999
2 63769  43.0015  91.1354 0001207 282.9569  77.1148 15.27642711 67164
STARLINK-33884          
1 63770U 25089V   26188.10725226  .00034711  00000+0  12630-2 0  9996
2 63770  43.0027  90.5934 0001973 265.0925  94.9702 15.27629568 67173
STARLINK-33841          
1 63771U 25089W   26188.11496691  .00029452  00000+0  10742-2 0  9997
2 63771  43.0043  90.6490 0001675 260.5251  99.5411 15.27618709 67174
STARLINK-33769          
1 63773U 25089X   26187.12389996  .00032536  00000+0  11878-2 0  9996
2 63773  43.0011  96.1136 0001210 267.3140  92.7573 15.27547365 67067
STARLINK-33914          
1 63774U 25089Y   26187.11152902  .00018375  00000+0  67624-3 0  9997
2 63774  43.0010  92.5212 0001465 269.0147  91.0537 15.27548181 67115
STARLINK-33932          
1 63775U 25091A   26188.14864435  .00029520  00000+0  10752-2 0  9999
2 63775  43.0033  97.7345 0002951 246.9125 113.1416 15.27661312 67211
STARLINK-33930          
1 63776U 25091B   26188.11798647  .00026627  00000+0  97275-3 0  9999
2 63776  43.0003  98.3736 0001502 277.5263  82.5418 15.27609170 67163
STARLINK-33911          
1 63777U 25091C   26188.08039676  .00026503  00000+0  96793-3 0  9993
2 63777  42.9971  91.1213 0001062 304.2937  55.7814 15.27621772 67247
STARLINK-33938          
1 63778U 25091D   26186.79227323  .00019894  00000+0  73186-3 0  9994
2 63778  42.9998 105.6177 0001313 248.3707 111.7004 15.27518927 67059
STARLINK-33881          
1 63779U 25091E   26188.12441345  .00015937  00000+0  58725-3 0  9992
2 63779  43.0000  98.4205 0001400 235.9964 124.0755 15.27589415 67163
STARLINK-33846          
1 63780U 25091F   26188.11412929  .00029511  00000+0  10765-2 0  9993
2 63780  43.0017  98.3394 0001642 267.4083  92.6580 15.27615894 67214
STARLINK-33883          
1 63781U 25091G   26188.11027709  .00029615  00000+0  10802-2 0  9999
2 63781  42.9981  98.3091 0001260 269.1493  90.9215 15.27615697 67168
STARLINK-33842          
1 63782U 25091H   26188.03074432  .00024394  00000+0  89179-3 0  9999
2 63782  43.0000  98.5722 0001666 266.5550  93.5111 15.27626376 67240
STARLINK-33892          
1 63783U 25091J   26188.16024334  .00006195  00000+0  23417-3 0  9992
2 63783  42.9977  97.8283 0001296 285.0800  74.9908 15.27618659 67173
STARLINK-33933          
1 63784U 25091K   26186.13419670  .00031069  00000+0  11328-2 0  9994
2 63784  42.9996 102.3252 0002184 259.3878 100.6728 15.27607442 67051
STARLINK-33923          
1 63786U 25091M   26186.79355054  .00031492  00000+0  11499-2 0  9992
2 63786  42.9988 105.6238 0001447 160.5380 199.5527 15.27554560 66916
STARLINK-33947          
1 63787U 25091N   26188.12312753  .00026749  00000+0  97715-3 0  9996
2 63787  43.0003  98.4111 0001459 255.9426 104.1263 15.27610057 67160
STARLINK-33882          
1 63788U 25091P   26187.96279703  .00037235  00000+0  13545-2 0  9995
2 63788  43.0008  98.9184 0001627 268.7623  91.3042 15.27611994 67139
STARLINK-33875          
1 63789U 25091Q   26188.14740367  .00031534  00000+0  11494-2 0  9993
2 63789  42.9959  97.7324 0001600  20.1440 339.9474 15.27612025 67174
STARLINK-33869          
1 63790U 25091R   26188.14097779  .00013001  00000+0  48120-3 0  9993
2 63790  43.0032  97.6745 0000868  25.9739 334.1156 15.27574748 67123
STARLINK-33935          
1 63791U 25091S   26188.11926774  .00030207  00000+0  11013-2 0  9994
2 63791  43.0010  98.3805 0001576 273.9896  86.0775 15.27622273 67274
STARLINK-33916          
1 63792U 25091T   26188.18080328 -.00006904  00000+0 -24164-3 0  9999
2 63792  42.9994  97.9838 0001439  12.2790 347.8096 15.27572680 67179
STARLINK-33925          
1 63793U 25091U   26188.14482169  .00022837  00000+0  83633-3 0  9992
2 63793  43.0044  97.7021 0001703 259.7870 100.2790 15.27599260 67288
STARLINK-33870          
1 63794U 25091V   26188.13839068  .00029225  00000+0  10660-2 0  9993
2 63794  43.0036  97.6546 0001912 259.5110 100.5527 15.27621831 67177
STARLINK-33867          
1 63795U 25091W   26188.10770282  .00026088  00000+0  95311-3 0  9994
2 63795  42.9990  98.2846 0001335 276.9225  83.1475 15.27616932 67167
STARLINK-33918          
1 63796U 25091X   26187.97822688  .00023464  00000+0  85928-3 0  9995
2 63796  42.9994  99.0332 0001785 260.3142  99.7508 15.27587373 67194
