OBJECT_NAME,OBJECT_ID,EPOCH,MEAN_MOTION,ECCENTRICITY,INCLINATION,RA_OF_ASC_NODE,ARG_OF_PERICENTER,MEAN_ANOMALY,EPHEMERIS_TYPE,CLASSIFICATION_TYPE,NORAD_CAT_ID,ELEMENT_SET_NO,REV_AT_EPOCH,BSTAR,MEAN_MOTION_DOT,MEAN_MOTION_DDOT
STARLINK-33941,2025-089Q,2026-07-07T03:17:00.600000,15.27592150,.000153,43.0016,90.8170,265.2675,94.8002,0,U,63765,999,6721,.6859E-3,.18667E-3,0
STARLINK-33824,2025-089R,2026-07-07T02:06:54.472608,15.27616562,.0001029,42.9965,91.3129,268.4337,91.6396,0,U,63766,999,6721,.1076E-2,.29498E-3,0
STARLINK-33808,2025-089S,2026-07-07T04:34:30.654048,15.27611395,.000154,43.0032,90.3595,266.2591,93.8084,0,U,63767,999,6723,.90381E-3,.24716E-3,0
STARLINK-33844,2025-089T,2026-07-07T02:32:35.974752,15.27616278,.0001381,43.0011,90.5852,255.3367,104.7332,0,U,63768,999,6722,.10297E-2,.28212E-3,0
STARLINK-33907,2025-089U,2026-07-07T01:33:35.174016,15.27642711,.0001207,43.0015,91.1354,282.9569,77.1148,0,U,63769,999,6716,.13996E-2,.38526E-3,0
STARLINK-33884,2025-089V,2026-07-07T02:34:26.595264,15.27629568,.0001973,43.0027,90.5934,265.0925,94.9702,0,U,63770,999,6717,.1263E-2,.34711E-3,0
STARLINK-33841,2025-089W,2026-07-07T02:45:33.141024,15.27618709,.0001675,43.0043,90.6490,260.5251,99.5411,0,U,63771,999,6717,.10742E-2,.29452E-3,0
STARLINK-33769,2025-089X,2026-07-06T02:58:24.956544,15.27547365,.00012106,43.0011,96.1136,267.3140,92.7573,0,U,63773,999,6706,.11878367E-2,.32536E-3,0
STARLINK-33914,2025-089Y,2026-07-06T02:40:36.107328,15.27548181,.00014652,43.0010,92.5212,269.0147,91.0537,0,U,63774,999,6711,.67623727E-3,.18375E-3,0
STARLINK-33932,2025-091A,2026-07-07T03:34:02.871840,15.27661312,.0002951,43.0033,97.7345,246.9125,113.1416,0,U,63775,999,6721,.10752E-2,.2952E-3,0
STARLINK-33930,2025-091B,2026-07-07T02:49:54.031008,15.27609170,.0001502,43.0003,98.3736,277.5263,82.5418,0,U,63776,999,6716,.97275E-3,.26627E-3,0
STARLINK-33911,2025-091C,2026-07-07T01:55:46.280064,15.27621772,.0001062,42.9971,91.1213,304.2937,55.7814,0,U,63777,999,6724,.96793E-3,.26503E-3,0
STARLINK-33938,2025-091D,2026-07-05T19:00:52.407072,15.27518927,.00013136,42.9998,105.6177,248.3707,111.7004,0,U,63778,999,6705,.7318641E-3,.19894E-3,0
STARLINK-33881,2025-091E,2026-07-07T02:59:09.322080,15.27589415,.00014,43.0000,98.4205,235.9964,124.0755,0,U,63779,999,6716,.58725E-3,.15937E-3,0
STARLINK-33846,2025-091F,2026-07-07T02:44:20.770656,15.27615894,.0001642,43.0017,98.3394,267.4083,92.6580,0,U,63780,999,6721,.10765E-2,.29511E-3,0
STARLINK-33883,2025-091G,2026-07-07T02:38:47.940576,15.27615697,.000126,42.9981,98.3091,269.1493,90.9215,0,U,63781,999,6716,.10802E-2,.29615E-3,0
STARLINK-33842,2025-091H,2026-07-07T00:44:16.309248,15.27626376,.0001666,43.0000,98.5722,266.5550,93.5111,0,U,63782,999,6724,.89179E-3,.24394E-3,0
STARLINK-33892,2025-091J,2026-07-07T03:50:45.024576,15.27618659,.0001296,42.9977,97.8283,285.0800,74.9908,0,U,63783,999,6717,.23417E-3,.6195E-4,0
STARLINK-33933,2025-091K,2026-07-05T03:13:14.594880,15.27607442,.0002184,42.9996,102.3252,259.3878,100.6728,0,U,63784,999,6705,.11328E-2,.31069E-3,0
STARLINK-33923,2025-091M,2026-07-05T19:02:42.766656,15.27554560,.0001447,42.9988,105.6238,160.5380,199.5527,0,U,63786,999,6691,.11499053E-2,.31492E-3,0
STARLINK-33947,2025-091N,2026-07-07T02:57:18.218592,15.27610057,.0001459,43.0003,98.4111,255.9426,104.1263,0,U,63787,999,6716,.97715E-3,.26749E-3,0
STARLINK-33882,2025-091P,2026-07-06T23:06:25.663392,15.27611994,.0001627,43.0008,98.9184,268.7623,91.3042,0,U,63788,999,6713,.13545E-2,.37235E-3,0
STARLINK-33875,2025-091Q,2026-07-07T03:32:15.677088,15.27612025,.00016,42.9959,97.7324,20.1440,339.9474,0,U,63789,999,6717,.11494E-2,.31534E-3,0
STARLINK-33869,2025-091R,2026-07-07T03:23:00.481056,15.27574748,.0000868,43.0032,97.6745,25.9739,334.1156,0,U,63790,999,6712,.4812E-3,.13001E-3,0
STARLINK-33935,2025-091S,2026-07-07T02:51:44.732736,15.27622273,.0001576,43.0010,98.3805,273.9896,86.0775,0,U,63791,999,6727,.11013E-2,.30207E-3,0
STARLINK-33916,2025-091T,2026-07-07T04:20:21.403392,15.27572680,.0001439,42.9994,97.9838,12.2790,347.8096,0,U,63792,999,6717,-.24164E-3,-.6904E-4,0
STARLINK-33925,2025-091U,2026-07-07T03:28:32.594016,15.27599260,.0001703,43.0044,97.7021,259.7870,100.2790,0,U,63793,999,6728,.83633E-3,.22837E-3,0
STARLINK-33870,2025-091V,2026-07-07T03:19:16.954752,15.27621831,.0001912,43.0036,97.6546,259.5110,100.5527,0,U,63794,999,6717,.1066E-2,.29225E-3,0
STARLINK-33867,2025-091W,2026-07-07T02:35:05.523648,15.27616932,.0001335,42.9990,98.2846,276.9225,83.1475,0,U,63795,999,6716,.95311E-3,.26088E-3,0
STARLINK-33918,2025-091X,2026-07-06T23:28:38.802432,15.27587373,.0001785,42.9994,99.0332,260.3142,99.7508,0,U,63796,999,6719,.85928E-3,.23464E-3,0
